[{"OBJECT_NAME":"STARLINK-6270","OBJECT_ID":"2023-061AZ","EPOCH":"2026-03-09T07:37:22.125216","MEAN_MOTION":15.02532108,"ECCENTRICITY":0.00013254,"INCLINATION":43.0045,"RA_OF_ASC_NODE":173.9129,"ARG_OF_PERICENTER":267.6382,"MEAN_ANOMALY":92.4309,"EPHEMERIS_TYPE":0,"CLASSIFICATION_TYPE":"U","NORAD_CAT_ID":56421,"ELEMENT_SET_NO":999,"REV_AT_EPOCH":15699,"BSTAR":-1.3581322e-5,"MEAN_MOTION_DOT":-3.87e-6,"MEAN_MOTION_DDOT":0},{"OBJECT_NAME":"NOAA 16 DEB","OBJECT_ID":"2000-055LF","EPOCH":"2026-03-09T22:09:26.280576","MEAN_MOTION":15.03400913,"ECCENTRICITY":0.0013479,"INCLINATION":98.8787,"RA_OF_ASC_NODE":242.3075,"ARG_OF_PERICENTER":293.6263,"MEAN_ANOMALY":66.3543,"EPHEMERIS_TYPE":0,"CLASSIFICATION_TYPE":"U","NORAD_CAT_ID":41426,"ELEMENT_SET_NO":999,"REV_AT_EPOCH":52286,"BSTAR":0.010804821,"MEAN_MOTION_DOT":0.00150198,"MEAN_MOTION_DDOT":0}]
